$$SOE
2460154.500000000, A.D. 2023-Jul-29 00:00:00.0000, 2.048334948403681E+08, 1.650601062466919E+08, -1.175421191650387E+07,
2460161.500000000, A.D. 2023-Aug-05 00:00:00.0000, 1.964673714854943E+08, 1.752111319879428E+08, -1.669331709891337E+07,
2460168.500000000, A.D. 2023-Aug-12 00:00:00.0000, 1.875817900026947E+08, 1.848989127417244E+08, -2.158828784648063E+07,
2460175.500000000, A.D. 2023-Aug-19 00:00:00.0000, 1.782030440018980E+08, 1.941005894191461E+08, -2.642650146478385E+07,
2460182.500000000, A.D. 2023-Aug-26 00:00:00.0000, 1.683586804209036E+08, 2.027951127596270E+08, -3.119566402675233E+07,
2460189.500000000, A.D. 2023-Sep-02 00:00:00.0000, 1.580773536161302E+08, 2.109632928717178E+08, -3.588385561216275E+07,
2460196.500000000, A.D. 2023-Sep-09 00:00:00.0000, 1.473886777254415E+08, 2.185878349617685E+08, -4.047957150790088E+07,
2460203.500000000, A.D. 2023-Sep-16 00:00:00.0000, 1.363230789953081E+08, 2.256533615296429E+08, -4.497175918908652E+07,
2460210.500000000, A.D. 2023-Sep-23 00:00:00.0000, 1.249116499251614E+08, 2.321464218293679E+08, -4.934985097077766E+07,
2460217.500000000, A.D. 2023-Sep-30 00:00:00.0000, 1.131860062239210E+08, 2.380554904396366E+08, -5.360379215062845E+07,
2460224.500000000, A.D. 2023-Oct-07 00:00:00.0000, 1.011781454223300E+08, 2.433709551557781E+08, -5.772406447739356E+07,
2460231.500000000, A.D. 2023-Oct-14 00:00:00.0000, 8.892030922768611E+07, 2.480850917664044E+08, -6.170170537770769E+07,
2460238.500000000, A.D. 2023-Oct-21 00:00:00.0000, 7.644485378744330E+07, 2.521920282771803E+08, -6.552832323980397E+07,
2460245.500000000, A.D. 2023-Oct-28 00:00:00.0000, 6.378412721894511E+07, 2.556877018053632E+08, -6.919610859734389E+07,
2460252.500000000, A.D. 2023-Nov-04 00:00:00.0000, 5.097035375584534E+07, 2.585698083682948E+08, -7.269784134039435E+07,
2460259.500000000, A.D. 2023-Nov-11 00:00:00.0000, 3.803552513180249E+07, 2.608377459988095E+08, -7.602689423636468E+07,
2460266.500000000, A.D. 2023-Nov-18 00:00:00.0000, 2.501129973305001E+07, 2.624925521712828E+08, -7.917723305092296E+07,
2460273.500000000, A.D. 2023-Nov-25 00:00:00.0000, 1.192890979556087E+07, 2.635368365842157E+08, -8.214341357305990E+07,
2460280.500000000, A.D. 2023-Dec-02 00:00:00.0000, -1.180923227417058E+06, 2.639747102546497E+08, -8.492057585689710E+07,
2460287.500000000, A.D. 2023-Dec-09 00:00:00.0000, -1.428806505957935E+07, 2.638117117651800E+08, -8.750443599482948E+07,
2460294.500000000, A.D. 2023-Dec-16 00:00:00.0000, -2.736303658156778E+07, 2.630547315105764E+08, -8.989127574014810E+07,
2460301.500000000, A.D. 2023-Dec-23 00:00:00.0000, -4.037707324849965E+07, 2.617119354028780E+08, -9.207793023987794E+07,
2460308.500000000, A.D. 2023-Dec-30 00:00:00.0000, -5.330217755435830E+07, 2.597926897923546E+08, -9.406177394821016E+07,
2460315.500000000, A.D. 2024-Jan-06 00:00:00.0000, -6.611116663322849E+07, 2.573074858711754E+08, -9.584070501006626E+07,
2460322.500000000, A.D. 2024-Jan-13 00:00:00.0000, -7.877771220535186E+07, 2.542678622971885E+08, -9.741312878787810E+07,
2460329.500000000, A.D. 2024-Jan-20 00:00:00.0000, -9.127637207188088E+07, 2.506863296187457E+08, -9.877794063343066E+07,
2460336.500000000, A.D. 2024-Jan-27 00:00:00.0000, -1.035826156194524E+08, 2.465762975809608E+08, -9.993450789573690E+07,
2460343.500000000, A.D. 2024-Feb-03 00:00:00.0000, -1.156728442091798E+08, 2.419520047150272E+08, -1.008826514079479E+08,
2460350.500000000, A.D. 2024-Feb-10 00:00:00.0000, -1.275244066279876E+08, 2.368284502082889E+08, -1.016226266908231E+08,
2460357.500000000, A.D. 2024-Feb-17 00:00:00.0000, -1.391156099160710E+08, 2.312213282953697E+08, -1.021551050553239E+08,
2460364.500000000, A.D. 2024-Feb-24 00:00:00.0000, -1.504257259789208E+08, 2.251469653636602E+08, -1.024811547565072E+08,
2460371.500000000, A.D. 2024-Mar-02 00:00:00.0000, -1.614349943876988E+08, 2.186222598694739E+08, -1.026022223338233E+08,
2460378.500000000, A.D. 2024-Mar-09 00:00:00.0000, -1.721246216480657E+08, 2.116646250860013E+08, -1.025201142664789E+08,
2460385.500000000, A.D. 2024-Mar-16 00:00:00.0000, -1.824767769442534E+08, 2.042919349241595E+08, -1.022369790574865E+08,
2460392.500000000, A.D. 2024-Mar-23 00:00:00.0000, -1.924745848463875E+08, 1.965224739440095E+08, -1.017552897251407E+08,
2460399.500000000, A.D. 2024-Mar-30 00:00:00.0000, -2.021021175882655E+08, 1.883748915117768E+08, -1.010778265679265E+08,
2460406.500000000, A.D. 2024-Apr-06 00:00:00.0000, -2.113443869961570E+08, 1.798681566959294E+08, -1.002076605578230E+08,
2460413.500000000, A.D. 2024-Apr-13 00:00:00.0000, -2.201873328234963E+08, 1.710215146674622E+08, -9.914813765131800E+07,
2460420.500000000, A.D. 2024-Apr-20 00:00:00.0000, -2.286178087407787E+08, 1.618544471860413E+08, -9.790286373941371E+07,
2460427.500000000, A.D. 2024-Apr-27 00:00:00.0000, -2.366235677737315E+08, 1.523866365136948E+08, -9.647569017263989E+07,
2460434.500000000, A.D. 2024-May-04 00:00:00.0000, -2.441932473461174E+08, 1.426379319449206E+08, -9.487069994180292E+07,
2460441.500000000, A.D. 2024-May-11 00:00:00.0000, -2.513163539105229E+08, 1.326283187296777E+08, -9.309219454865497E+07,
2460448.500000000, A.D. 2024-May-18 00:00:00.0000, -2.579832472874218E+08, 1.223778892813115E+08, -9.114468157050654E+07,
2460455.500000000, A.D. 2024-May-25 00:00:00.0000, -2.641851248704425E+08, 1.119068165282458E+08, -8.903286291501060E+07,
2460462.500000000, A.D. 2024-Jun-01 00:00:00.0000, -2.699140058015141E+08, 1.012353292150250E+08, -8.676162376394778E+07,
2460469.500000000, A.D. 2024-Jun-08 00:00:00.0000, -2.751627150148036E+08, 9.038368899096304E+07, -8.433602221475172E+07,
2460476.500000000, A.D. 2024-Jun-15 00:00:00.0000, -2.799248668777819E+08, 7.937216969155985E+07, -8.176127959211101E+07,
2460483.500000000, A.D. 2024-Jun-22 00:00:00.0000, -2.841948495472541E+08, 6.822103984662290E+07, -7.904277121879470E+07,
2460490.500000000, A.D. 2024-Jun-29 00:00:00.0000, -2.879678122648622E+08, 5.695054645388424E+07, -7.618601757791851E+07,
2460497.500000000, A.D. 2024-Jul-06 00:00:00.0000, -2.912396530391421E+08, 4.558089741422018E+07, -7.319667628911090E+07,
2460504.500000000, A.D. 2024-Jul-13 00:00:00.0000, -2.940070048347741E+08, 3.413224532348703E+07, -7.008053481589660E+07,
2460511.500000000, A.D. 2024-Jul-20 00:00:00.0000, -2.962672223117881E+08, 2.262467363299091E+07, -6.684350359452844E+07,
2460518.500000000, A.D. 2024-Jul-27 00:00:00.0000, -2.980183698299724E+08, 1.107818408569263E+07, -6.349160957601960E+07,
2460525.500000000, A.D. 2024-Aug-03 00:00:00.0000, -2.992592104974835E+08, -4.873150663495138E+05, -6.003099021020735E+07,
2460532.500000000, A.D. 2024-Aug-10 00:00:00.0000, -2.999891961326917E+08, -1.205202017953338E+07, -5.646788785287178E+07,
2460539.500000000, A.D. 2024-Aug-17 00:00:00.0000, -3.002084581090941E+08, -2.359624276086044E+07, -5.280864455732409E+07,
2460546.500000000, A.D. 2024-Aug-24 00:00:00.0000, -2.999177990589768E+08, -3.510041957404265E+07, -4.905969721208664E+07,
2460553.500000000, A.D. 2024-Aug-31 00:00:00.0000, -2.991186853207959E+08, -4.654512249609886E+07, -4.522757300346134E+07,
2460560.500000000, A.D. 2024-Sep-07 00:00:00.0000, -2.978132397727697E+08, -5.791106812273510E+07, -4.131888519863261E+07,
2460567.500000000, A.D. 2024-Sep-14 00:00:00.0000, -2.960042349802303E+08, -6.917912623977295E+07, -3.734032915163170E+07,
2460574.500000000, A.D. 2024-Sep-21 00:00:00.0000, -2.936950886919402E+08, -8.033032684955928E+07, -3.329867828399957E+07,
2460581.500000000, A.D. 2024-Sep-28 00:00:00.0000, -2.908898621703747E+08, -9.134586907847825E+07, -2.920078022580873E+07,
2460588.500000000, A.D. 2024-Oct-05 00:00:00.0000, -2.875932576773616E+08, -1.022071320609017E+08, -2.505355341682627E+07,
2460595.500000000, A.D. 2024-Oct-12 00:00:00.0000, -2.838106154538407E+08, -1.128956849122208E+08, -2.086398385085576E+07,
2460602.500000000, A.D. 2024-Oct-19 00:00:00.0000, -2.795479119085405E+08, -1.233932961557569E+08, -1.663912178340717E+07,
2460609.500000000, A.D. 2024-Oct-26 00:00:00.0000, -2.748117590089889E+08, -1.336819435055112E+08, -1.238607842695152E+07,
2460616.500000000, A.D. 2024-Nov-02 00:00:00.0000, -2.696094045828981E+08, -1.437438242542569E+08, -8.112022633261941E+06,
2460623.500000000, A.D. 2024-Nov-09 00:00:00.0000, -2.639487333960903E+08, -1.535613663417664E+08, -3.824177532104462E+06,
2460630.500000000, A.D. 2024-Nov-16 00:00:00.0000, -2.578382689350351E+08, -1.631172401951280E+08, 4.701829113363177E+05,
2460637.500000000, A.D. 2024-Nov-23 00:00:00.0000, -2.512871757931821E+08, -1.723943714829012E+08, 4.763737452840589E+06,
2460644.500000000, A.D. 2024-Nov-30 00:00:00.0000, -2.443052623926674E+08, -1.813759549173074E+08, 9.049121258415133E+06,
2460651.500000000, A.D. 2024-Dec-07 00:00:00.0000, -2.369029835553353E+08, -1.900454687740682E+08, 1.331892976496860E+07,
2460658.500000000, A.D. 2024-Dec-14 00:00:00.0000, -2.290914435367483E+08, -1.983866889938489E+08, 1.756572291916935E+07,
2460665.500000000, A.D. 2024-Dec-21 00:00:00.0000, -2.208824017572202E+08, -2.063837041931266E+08, 2.178202994986288E+07,
2460672.500000000, A.D. 2024-Dec-28 00:00:00.0000, -2.122882791671253E+08, -2.140209346415135E+08, 2.596035429576721E+07,
2460679.500000000, A.D. 2025-Jan-04 00:00:00.0000, -2.033221625546166E+08, -2.212831529180270E+08, 3.009317869202489E+07,
2460686.500000000, A.D. 2025-Jan-11 00:00:00.0000, -1.939978085116843E+08, -2.281555046675984E+08, 3.417297076801023E+07,
2460693.500000000, A.D. 2025-Jan-18 00:00:00.0000, -1.843296478557649E+08, -2.346235304501393E+08, 3.819218921540537E+07,
2460700.500000000, A.D. 2025-Jan-25 00:00:00.0000, -1.743327901286860E+08, -2.406731892266179E+08, 4.214329051440249E+07,
2460707.500000000, A.D. 2025-Feb-01 00:00:00.0000, -1.640230278371576E+08, -2.462908835830738E+08, 4.601873624738836E+07,
2460714.500000000, A.D. 2025-Feb-08 00:00:00.0000, -1.534168402225105E+08, -2.514634867412115E+08, 4.981100104801942E+07,
$$EOE